ONEWEB-0551             
1 56053U 23043H   24049.13854364 -.00000024  00000+0 -98031-4 0  9996
2 56053  87.8948  68.4204 0001983  84.6844 275.4513 13.15548309 45548
ONEWEB-0552             
1 56054U 23043J   24048.77267776 -.00000015  00000+0 -67451-4 0  9993
2 56054  87.9206  53.2682 0002245  87.0473 273.0918 13.21825290 45880
ONEWEB-0553             
1 56055U 23043K   24048.92794964  .00000001  00000+0 -29696-4 0  9998
2 56055  87.9056  37.9930 0001401  93.1257 267.0034 13.16593799 47097
ONEWEB-0554             
1 56056U 23043L   24048.91527441  .00000002  00000+0 -28019-4 0  9991
2 56056  87.9060  38.0138 0002546  95.2519 264.8903 13.16586023 47070
ONEWEB-0555             
1 56057U 23043M   24048.95326772  .00000107  00000+0  24739-3 0  9999
2 56057  87.9059  37.9807 0001548 110.4240 249.7057 13.16596177 47086
ONEWEB-0557             
1 56058U 23043N   24048.89153684  .00000114  00000+0  26390-3 0  9996
2 56058  87.9059  38.0192 0001957 121.1103 239.0220 13.16594761 47077
ONEWEB-0558             
1 56059U 23043P   24048.91776865  .00000019  00000+0  14085-4 0  9995
2 56059  87.9209  53.2188 0002077  74.5491 285.5873 13.21824958 45915
ONEWEB-0559             
1 56060U 23043Q   24048.90672279  .00000067  00000+0  13094-3 0  9991
2 56060  87.9207  53.2206 0002516  84.4609 275.6812 13.21824581 45921
ONEWEB-0566             
1 56061U 23043R   24048.74903684 -.00000038  00000+0 -12328-3 0  9990
2 56061  87.9207  53.2532 0002275  70.2133 289.9246 13.21825960 45887
ONEWEB-0568             
1 56062U 23043S   24048.90895410  .00000024  00000+0  29563-4 0  9999
2 56062  87.9058  37.9797 0001563  94.8743 265.2566 13.16594657 47099
ONEWEB-0574             
1 56063U 23043T   24048.74272582 -.00000023  00000+0 -87390-4 0  9994
2 56063  87.9205  53.2511 0001782  85.8587 274.2750 13.21824828 45925
ONEWEB-0575             
1 56064U 23043U   24048.90261598  .00000022  00000+0  23319-4 0  9996
2 56064  87.9059  37.9884 0002115 103.3484 256.7883 13.16594326 47080
ONEWEB-0576             
1 56065U 23043V   24048.95959972  .00000142  00000+0  33725-3 0  9996
2 56065  87.9057  37.9772 0001627 101.0134 259.1180 13.16596290 47088
ONEWEB-0577             
1 56066U 23043W   24048.88995465  .00000126  00000+0  29703-3 0  9999
2 56066  87.9058  37.9897 0002351 108.2982 251.8405 13.16594385 47108
ONEWEB-0578             
1 56067U 23043X   24048.95719030  .00000171  00000+0  38354-3 0  9992
2 56067  87.9207  53.2026 0001763  91.3806 268.7530 13.21824929 45912
ONEWEB-0579             
1 56068U 23043Y   24048.94773664  .00000157  00000+0  34940-3 0  9996
2 56068  87.9206  53.2058 0002299  83.7924 276.3472 13.21826559 45920
ONEWEB-0581             
1 56069U 23043Z   24048.89628993  .00000054  00000+0  10672-3 0  9997
2 56069  87.9059  38.0181 0002398  96.3888 263.7516 13.16594932 47072
ONEWEB-0609             
1 56070U 23043AA  24048.78675325  .00000016  00000+0  96041-5 0  9992
2 56070  87.8945  68.4757 0001893  89.2287 270.9060 13.15546413 44628
ONEWEB-0613             
1 56071U 23043AB  24048.78200130 -.00000320  00000+0 -88305-3 0  9993
2 56071  87.8947  68.4679 0002172  84.3301 275.8077 13.15547642 44625
ONEWEB-0630             
1 56072U 23043AC  24048.77726663 -.00000108  00000+0 -32162-3 0  9991
2 56072  87.8947  68.4640 0002068  79.9471 280.1893 13.15548785 44619
ONEWEB-0632             
1 56073U 23043AD  24048.77251421 -.00000087  00000+0 -26610-3 0  9994
2 56073  87.8946  68.4835 0002318  95.5860 264.5534 13.15547342 44615
ONEWEB-0633             
1 56074U 23043AE  24048.76616905 -.00000055  00000+0 -17914-3 0  9998
2 56074  87.8945  68.4709 0002019  73.3383 286.7969 13.15549459 44593
ONEWEB-0634             
1 56075U 23043AF  24048.75191184  .00000033  00000+0  52605-4 0  9996
2 56075  87.8950  68.4769 0001483  85.8472 274.2828 13.15548510 44589
ONEWEB-0635             
1 56076U 23043AG  24048.74714879  .00000089  00000+0  20202-3 0  9996
2 56076  87.8947  68.5360 0002314  97.4920 262.6473 13.15546307 44618
ONEWEB-0636             
1 56077U 23043AH  24048.81530131  .00000132  00000+0  31701-3 0  9997
2 56077  87.8946  68.4912 0002175 100.0343 260.1033 13.15548765 44609
ONEWEB-0637             
1 56078U 23043AJ  24048.80893838  .00000083  00000+0  18735-3 0  9990
2 56078  87.8949  68.4672 0002282 101.1196 259.0191 13.15550580 44625
ONEWEB-0647             
1 56079U 23043AK  24048.95632490  .00000131  00000+0  31351-3 0  9995
2 56079  87.8945  68.4593 0002242  94.6843 265.4543 13.15548382 44635
ONEWEB-0651             
1 56080U 23043AL  24048.95156302  .00000121  00000+0  28785-3 0  9996
2 56080  87.8948  68.4333 0002153 103.3874 256.7497 13.15548776 45836
ONEWEB-0718             
1 56081U 23043AM  24048.94679193  .00000069  00000+0  14797-3 0  9993
2 56081  87.8946  68.4215 0001249  86.7597 273.3676 13.15550712 44640
GSLV R/B                
1 56082U 23043AN  24048.91508845  .00085913  00000+0  97915-3 0  9990
2 56082  87.4073  24.8563 0017263 159.9277 200.2673 15.61776466 50823
ONEWEB-0561             
1 56710U 23068A   24048.80778130  .00000111  00000+0  19669-3 0  9996
2 56710  88.2860  81.8920 0002719  85.1021 275.0431 13.34327140 37209
ONEWEB-0668             
1 56711U 23068B   24048.91667824  .00031471  00000+0  74570-1 0  9999
2 56711  87.9275  37.9380 0002928  97.2770 306.4320 13.23019075  5445
ONEWEB-0676             
1 56712U 23068C   24049.25001157 -.00288268  00000+0 -77320+0 0  9993
2 56712  87.9144  37.9323 0002052 103.2081 241.0978 13.17027016 40550
ONEWEB-0677             
1 56713U 23068D   24048.83339524  .00000035  00000+0  43342-4 0  9993
2 56713  88.3195  80.1850 0002382 106.8982 253.2421 13.34776093 37393
ONEWEB-0678             
1 56714U 23068E   24048.76300268 -.00000034  00000+0 -12356-3 0  9990
2 56714  87.8952  68.4207 0001875  85.8864 274.2481 13.15548533 37478
ONEWEB-0679             
1 56715U 23068F   24049.25001157  .00014386  00000+0  34084-1 0  9994
2 56715  87.9354  37.9396 0001966  94.3749 321.0081 13.23120044 40589
ONEWEB-0680             
1 56716U 23068G   24049.01159116  .00000031  00000+0  43217-4 0  9991
2 56716  87.9206  53.2296 0001067 101.5315 258.5938 13.21823345 39482
ONEWEB-0681             
1 56717U 23068H   24048.96113654  .00000063  00000+0  12173-3 0  9993
2 56717  87.9204  53.2280 0002918 107.3785 252.7668 13.21824480 38762
ONEWEB-0682             
1 56718U 23068J   24048.79197347  .00000152  00000+0  36562-3 0  9993
2 56718  87.8945  68.4617 0001591 109.7275 250.4027 13.16086355 37647
ONEWEB-0683             
1 56719U 23068K   24048.81055171  .00000165  00000+0  40385-3 0  9997
2 56719  87.8947  68.4297 0001713  99.9581 260.1743 13.15567121 37614
ONEWEB-0684             
1 56720U 23068L   24048.74240988  .00000174  00000+0  42869-3 0  9992
2 56720  87.8948  68.5191 0001774  73.9732 286.1594 13.15551021 37432
ONEWEB-0686             
1 56721U 23068M   24049.25001157  .00000013  00000+0  00000+0 0  9992
2 56721  87.9241  37.9785 0001980  58.1445  85.7404 13.19915472 40574
ONEWEB-0694             
1 56722U 23068N   24048.89935456  .00000103  00000+0  19279-3 0  9992
2 56722  87.9606  37.9537 0001740  91.3076 268.8262 13.29613936 39887
ONEWEB-0696             
1 56723U 23068P   24048.77568230 -.00000070  00000+0 -22128-3 0  9994
2 56723  87.8948  68.4867 0002114  90.5237 269.6136 13.15526832 37551
ONEWEB-0703             
1 56724U 23068Q   24048.78517234 -.00000017  00000+0 -78104-4 0  9991
2 56724  87.8945  68.5063 0003185  86.1455 274.0039 13.15545719 37445
ONEWEB-0721             
1 56725U 23068R   24048.94478592  .00004198  00000+0  49872-3 0  9994
2 56725  86.6779  26.3036 0010231 353.1612   6.9470 14.84184566 40678
